[{"OBJECT_NAME":"STARLINK-32726","OBJECT_ID":"2024-251Q","EPOCH":"2026-03-09T23:23:05.709696","MEAN_MOTION":15.30213547,"ECCENTRICITY":9.243e-5,"INCLINATION":53.16,"RA_OF_ASC_NODE":333.8607,"ARG_OF_PERICENTER":133.3235,"MEAN_ANOMALY":226.7843,"EPHEMERIS_TYPE":0,"CLASSIFICATION_TYPE":"U","NORAD_CAT_ID":62446,"ELEMENT_SET_NO":999,"REV_AT_EPOCH":6768,"BSTAR":0.0010695497,"MEAN_MOTION_DOT":0.00031465,"MEAN_MOTION_DDOT":0},{"OBJECT_NAME":"239ALFEROV (RS61S)","OBJECT_ID":"2025-155F","EPOCH":"2026-03-09T21:46:33.382848","MEAN_MOTION":15.29933217,"ECCENTRICITY":0.00084878,"INCLINATION":97.4469,"RA_OF_ASC_NODE":37.6373,"ARG_OF_PERICENTER":151.5904,"MEAN_ANOMALY":208.58,"EPHEMERIS_TYPE":0,"CLASSIFICATION_TYPE":"U","NORAD_CAT_ID":64881,"ELEMENT_SET_NO":999,"REV_AT_EPOCH":6561,"BSTAR":0.00067233359,"MEAN_MOTION_DOT":0.00019457,"MEAN_MOTION_DDOT":0}]
